#aV2024  3  9  0  0  0.00000000     288 DD+AD WGS84 FIT  NGA
## 2304 518400.00000000   300.00000000 60378 0.0000000000000
+   32     1  2  3  4  5  6  7  8  9 10 11 12 13 14 15 16 17
+         18 19 20 21 22 23 24 25 26 27 28 29 30 31 32  0  0
+          0  0  0  0  0  0  0  0  0  0  0  0  0  0  0  0  0
+          0  0  0  0  0  0  0  0  0  0  0  0  0  0  0  0  0
+          0  0  0  0  0  0  0  0  0  0  0  0  0  0  0  0  0
++         2  2  2  2  2  2  2  2  2  2  2  2  2  2  2  2  2
++         2  2  2  2  2  2  2  2  2  2  2  2  2  2  2  0  0
++         0  0  0  0  0  0  0  0  0  0  0  0  0  0  0  0  0
++         0  0  0  0  0  0  0  0  0  0  0  0  0  0  0  0  0
++         0  0  0  0  0  0  0  0  0  0  0  0  0  0  0  0  0
%c cc cc ccc ccc cccc cccc cccc cccc ccccc ccccc ccccc ccccc
%c cc cc ccc ccc cccc cccc cccc cccc ccccc ccccc ccccc ccccc
%f  0.0000000  0.000000000  0.00000000000  0.000000000000000
%f  0.0000000  0.000000000  0.00000000000  0.000000000000000
%i    0    0    0    0      0      0      0      0         0
%i    0    0    0    0      0      0      0      0         0
/*      NGA, ST. LOUIS,MO.                                  
/*   EPHEMERIS COMPUTED FROM 2 DAYS OF DATA                 
/*   EPOCHA v9 SMOOTHER                                     
/*   G2296 IERS2010 SATIGS SATAPC                           
*  2024  3  9  7 55  0.00000000
P  1 -12508.874659   8599.874173  21405.832809    173.043977                    
V  1  -6396.508723 -27235.609969   7410.612654      0.019155                    
P  2 -16023.538610   -998.913671  21690.071549   -473.214875                    
V  2  -7764.900439 -25162.067167  -6797.410614      0.061300                    
P  3 -21717.369747   9926.429183  11358.883727    241.144048                    
V  3   9383.937129 -11421.415139  27687.722848      0.230274                    
P  4 -24372.835707   -472.724488 -10691.815391    310.543993                    
V  4 -12094.784146  -6508.040028  27687.370508      0.091800                    
P  5  17432.800645   1851.575526 -20151.099661   -164.713732                    
V  5 -16820.805325  18727.995262 -12852.291793     -0.014175                    
P  6   5498.340482  25919.955966    333.289293    375.599994                    
V  6  -2007.074500     93.566499  32461.677044     -0.160917                    
P  7  -7377.731535  19106.118782 -16151.711494    -80.092448                    
V  7  -7349.352072 -20525.971031 -20773.672438     -0.088122                    
P  8 -26134.926932  -5528.188673   1991.562711     41.716903                    
V  8  -1846.050714  -3241.574582 -31197.968707      0.279945                    
P  9 -14931.873460  10154.478736 -19576.751755    118.356452                    
V  9 -23459.058177  -7752.095294  13872.242717      0.130659                    
P 10   5742.716607 -20236.527540  16222.580923      0.355355                    
V 10  15882.300126 -12737.771363 -22100.269768     -0.013162                    
P 11  11828.654345  20912.610185 -11350.130284   -600.995412                    
V 11    424.301281  14588.542757  27217.019365     -0.119311                    
P 12  22377.836862  -7824.544240  11624.707465   -485.449172                    
V 12 -10237.911056  11536.831264  26874.063830     -0.036046                    
P 13  22199.522494  14019.486087  -4946.804624    632.528636                    
V 13  -6355.316363   -508.448199 -31023.312546      0.033809                    
P 14  -9576.566425  21035.133147  12936.936963    345.856410                    
V 14 -14153.157382   8916.061640 -25210.660130      0.098002                    
P 15  26456.402088   2836.947524   1324.604513    135.754920                    
V 15   1735.497569   3773.024776 -30977.243514      0.039862                    
P 16 -13772.277946  -8274.624434 -21551.415003   -345.320560                    
V 16  20623.078646 -16653.870306  -6444.593822      0.087410                    
P 17  -1709.334696  15417.782483  21967.494472    714.349515                    
V 17 -25340.501769  -8972.361676   4562.368407     -0.013570                    
P 18   6792.532882 -19984.155029 -15992.930195   -571.867070                    
V 18   5997.000542  19551.795194 -22045.264789     -0.076791                    
P 19   8969.525735  17247.419006  18075.431760    451.441307                    
V 19 -21848.139978  -7827.013878  17767.127551      0.053108                    
P 20   8953.026256  13208.795471 -21191.686134    384.606450                    
V 20 -16626.001350  21355.801158   6112.889908     -0.014116                    
P 21 -17016.322501  -7466.979829  19797.353562    132.058522                    
V 21  -6912.850994 -22797.586424 -13915.806772     -0.014713                    
P 22  -3003.951639  19031.734680  18831.001647     18.824473                    
V 22 -18797.161387  13187.707190 -16421.083267     -0.059834                    
P 23  15619.045861 -20668.677520   5404.732176    173.051346                    
V 23   6530.853890  -3156.808216 -31261.317183      0.085163                    
P 24  16761.280469   3487.226551  19989.604121   -443.667122                    
V 24   7394.327680  25260.451757  -9985.611588     -0.055255                    
P 25  20164.350038 -16764.819714   2820.168356    490.811518                    
V 25   -534.206554   5231.789375  31429.603244      0.010367                    
P 26  -4781.824006 -16851.697591 -20018.026704    181.637554                    
V 26  18130.368727 -17709.799641  11024.320114     -0.044270                    
P 27 -21394.332068 -13202.310416  -9498.927025    -10.391783                    
V 27  11641.993019   1275.949012 -28427.216219     -0.029214                    
P 28  -4784.681840 -25945.333697   3067.399965   -157.931794                    
V 28   3683.144173   3062.827073  31459.654495     -0.136820                    
P 29  17248.463050  -7183.925525 -18968.055076   -605.273140                    
V 29  21872.361640   9727.993765  16148.662819      0.009450                    
P 30     22.818014  25233.196501  -7704.079464   -422.239011                    
V 30  -5790.616407  -8993.617361 -29243.731074      0.052214                    
P 31 -10102.132085 -23329.523400  -7143.912134   -227.953982                    
V 31   1226.672748  -9358.945683  30096.630580     -0.000595                    
P 32  -2921.739160 -16188.483891  21097.682859   -615.147098                    
V 32  25399.503253   6746.282229   8577.682294     -0.014218                    
EOF
